#aV2010  7 30  0  0   .00000000      96 DD+AD WGS84 FIT  NGA
## 1594 432000.00000000   900.00000000 55407  .0000000000000
+   31     1  2  3  4  5  6  7  8  9 10 11 12 13 14 15 16 17
+         18 19 20 21 22 23 24 26 27 28 29 30 31 32  0  0  0
+          0  0  0  0  0  0  0  0  0  0  0  0  0  0  0  0  0
+          0  0  0  0  0  0  0  0  0  0  0  0  0  0  0  0  0
+          0  0  0  0  0  0  0  0  0  0  0  0  0  0  0  0  0
++         0  0  0  0  0  0  0  0  0  0  0  0  0  0  0  0  0
++         0  0  0  0  0  0  0  0  0  0  0  0  0  0  0  0  0
++         0  0  0  0  0  0  0  0  0  0  0  0  0  0  0  0  0
++         0  0  0  0  0  0  0  0  0  0  0  0  0  0  0  0  0
++         0  0  0  0  0  0  0  0  0  0  0  0  0  0  0  0  0
%c cc cc ccc ccc cccc cccc cccc cccc ccccc ccccc ccccc ccccc
%c cc cc ccc ccc cccc cccc cccc cccc ccccc ccccc ccccc ccccc
%f  0.0000000  0.000000000  0.00000000000  0.000000000000000
%f  0.0000000  0.000000000  0.00000000000  0.000000000000000
%i    0    0    0    0      0      0      0      0         0
%i    0    0    0    0      0      0      0      0         0
/*      NGA, ST. LOUIS,MO.                                  
/*   EPHEMERIS COMPUTED FROM  3 DAYS OF DATA                
/* CCCCCCCCCCCCCCCCCCCCCCCCCCCCCCCCCCCCCCCCCCCCCCCCCCCCCCCCC
/* CCCCCCCCCCCCCCCCCCCCCCCCCCCCCCCCCCCCCCCCCCCCCCCCCCCCCCCCC
*  2010  7 30  5 45   .00000000                                                 
P  1 -15170.129440   5069.382007  21108.518030   -146.514395                    
V  1 -17822.991398 -20338.651214  -7755.921816      -.040472                    
P  2  19051.465725 -13580.700931  12109.630961    276.857904                    
V  2  15939.301569   -436.987913 -26008.522619       .029852                    
P  3  -9575.274917  23533.141398   6735.628729    588.318022                    
V  3  -2240.418754  -9752.596523  29595.879854       .050106                    
P  4  26126.212731  -5771.655252    149.142520    135.591642                    
V  4   1065.414118   3056.906481 -31020.277888       .080698                    
P  5   5978.184899 -15243.061136  20885.376745    -18.765663                    
V  5  18565.842880  19034.177904   8657.274946      -.036947                    
P  6 -13693.413147  19867.863572  11087.381324    553.710794                    
V  6    470.275103 -14283.968159  26755.980704      -.145491                    
P  7  19277.930504   7544.998712  16732.855728     -1.869512                    
V  7 -20388.253582   5891.605906  20636.657634      -.001049                    
P  8  25997.655890    664.779194   6653.921963      6.275034                    
V  8  -8052.078845   2424.893824  30643.145856       .001141                    
P  9    833.877386 -15457.788788 -22130.279303     21.275492                    
V  9  26034.639464  -6092.579461   5397.448387       .022327                    
P 10  15943.983535  -4127.395760  20716.160435    -48.316033                    
V 10  16979.171877  20605.514628  -8538.871947      -.010277                    
P 11   5894.105642  15869.579725 -20722.376260    -79.024322                    
V 11 -23654.224592  10976.668690   2072.084156      -.026101                    
P 12  -9819.142496 -22213.841442 -10891.766933    -88.378259                    
V 12  10719.052513   8959.639422 -27685.739353       .039146                    
P 13   7986.683178  15282.646368  20050.685224    300.777910                    
V 13 -10283.419050  23565.338888 -13813.663663      -.007295                    
P 14 -16269.816924   5641.252291 -20038.484190     73.143481                    
V 14   8121.488736 -24438.310305 -13513.200263       .039684                    
P 15   5135.489787 -25755.414299  -3493.370476   -231.743812                    
V 15   4273.285352  -3389.832478  31253.982241       .059020                    
P 16 -10563.700696  10644.397025  21945.134645    -94.428491                    
V 16 -18271.374633 -20898.810201   1614.240279      -.035862                    
P 17  16179.013235  -2340.390711 -20783.806002    164.279884                    
V 17  -7842.763368  25521.983865  -9142.365899       .016877                    
P 18 -19914.014299 -17020.237419  -5201.138428     83.902908                    
V 18  -2129.969819  -7311.914670  30031.001664       .022909                    
P 19  -6718.769719  25089.364170  -4642.316790    -53.603834                    
V 19  -5135.904951   4362.447046  31169.066117      -.029768                    
P 20  11203.968473  22025.191360  -9932.343221     52.757597                    
V 20 -10913.670134  -6762.136784 -27622.134287      -.004526                    
P 21 -22069.271937  -6260.566482  14249.660367    -77.463674                    
V 21  16524.681830  -5714.232828  23041.403090      -.026469                    
P 22 -20636.031412  -6671.733877 -15228.021394    166.432691                    
V 22 -10930.234618 -16556.743225  21724.470053      -.007572                    
P 23   2635.351835  22375.568364  13776.155497    360.791888                    
V 23  -7644.705497  16058.783819 -24911.747839      -.016842                    
P 24 -23541.962526   9345.597368  -7519.826960    308.622221                    
V 24 -10120.631413  -1585.213202  29643.910663       .032207                    
P 26  11073.443398 -23685.967666   2446.867792    -89.763489                    
V 26    711.228121   4384.805482  32491.045605      -.064143                    
P 27   6116.273052 -15558.033238 -19913.800485    174.931765                    
V 27  26160.875803  -6009.020322  12496.244982       .035179                    
P 28  20482.619840  10119.026997 -13305.057601     -8.975822                    
V 28   9880.803389  14649.496000  25161.396702       .012462                    
P 29  -8566.561976 -16210.314169  19320.697955    138.107870                    
V 29   9329.233675 -22505.338977 -14771.939045       .027741                    
P 30 -18093.277044 -19458.977269  -1245.052795    264.972814                    
V 30   2825.786596  -1262.928153 -31588.371609       .032333                    
P 31 -25343.760827   7680.296554   3253.147950    -20.972294                    
V 31  -4208.044718  -1252.764951 -31648.957474       .026945                    
P 32   4173.281246  21968.519896 -14259.599936    -49.530290                    
V 32 -12891.139954 -13500.158499 -23664.527037      -.087924                    
EOF
